
# Worst residual: 12.47 km
# MJD 58040.000000 (2017 Oct 14  0:00)
2012-003B = NORAD 38071 = Delta 358 booster
1 38071U 12003B   17287.49919926  .00000000  00000-0  00000-0 0    02
2 38071 022.5241 301.8817 8180369 086.3970 304.7373 01.15540131    01

# Worst residual: 9.85 km
# MJD 58041.000000 (2017 Oct 15  0:00)
2012-003B = NORAD 38071 = Delta 358 booster
1 38071U 12003B   17288.49919926  .00000000  00000-0  00000-0 0    03
2 38071 022.5217 301.7038 8180117 086.6972 000.6363 01.15548291    00

# Worst residual: 11.95 km
# MJD 58042.000000 (2017 Oct 16  0:00)
2012-003B = NORAD 38071 = Delta 358 booster
1 38071U 12003B   17289.49919926  .00000000  00000-0  00000-0 0    04
2 38071 022.5194 301.5210 8180014 086.9996 056.5415 01.15544247    04

# Worst residual: 12.79 km
# MJD 58043.000000 (2017 Oct 17  0:00)
2012-003B = NORAD 38071 = Delta 358 booster
1 38071U 12003B   17290.49919926  .00000000  00000-0  00000-0 0    06
2 38071 022.5173 301.3391 8180424 087.3045 112.4413 01.15535357    06

# Worst residual: 10.84 km
# MJD 58044.000000 (2017 Oct 18  0:00)
2012-003B = NORAD 38071 = Delta 358 booster
1 38071U 12003B   17291.49919926  .00000000  00000-0  00000-0 0    07
2 38071 022.5155 301.1574 8180687 087.6145 168.3294 01.15533615    04

# Worst residual: 10.61 km
# MJD 58045.000000 (2017 Oct 19  0:00)
2012-003B = NORAD 38071 = Delta 358 booster
1 38071U 12003B   17292.49919926  .00000000  00000-0  00000-0 0    08
2 38071 022.5132 300.9465 8180712 087.9509 224.2164 01.15533394    03

# Worst residual: 11.96 km
# MJD 58046.000000 (2017 Oct 20  0:00)
2012-003B = NORAD 38071 = Delta 358 booster
1 38071U 12003B   17293.49919926  .00000000  00000-0  00000-0 0    09
2 38071 022.5121 300.7609 8180872 088.2672 280.0976 01.15535141    04

# Worst residual: 12.08 km
# MJD 58047.000000 (2017 Oct 21  0:00)
2012-003B = NORAD 38071 = Delta 358 booster
1 38071U 12003B   17294.49919926  .00000000  00000-0  00000-0 0    00
2 38071 022.5103 300.5768 8180230 088.5789 335.9881 01.15542486    03

# Worst residual: 11.03 km
# MJD 58048.000000 (2017 Oct 22  0:00)
2012-003B = NORAD 38071 = Delta 358 booster
1 38071U 12003B   17295.49919926  .00000000  00000-0  00000-0 0    01
2 38071 022.5090 300.3928 8179661 088.8855 031.8929 01.15548310    04

# Worst residual: 11.32 km
# MJD 58049.000000 (2017 Oct 23  0:00)
2012-003B = NORAD 38071 = Delta 358 booster
1 38071U 12003B   17296.49919926  .00000000  00000-0  00000-0 0    02
2 38071 022.5077 300.2157 8179384 089.1872 087.7869 01.15543241    08

# Worst residual: 11.55 km
# MJD 58050.000000 (2017 Oct 24  0:00)
2012-003B = NORAD 38071 = Delta 358 booster
1 38071U 12003B   17297.49919926  .00000000  00000-0  00000-0 0    03
2 38071 022.5068 300.0460 8178876 089.4820 143.6867 01.15537986    03

# Worst residual: 12.68 km
# MJD 58051.000000 (2017 Oct 25  0:00)
2012-003B = NORAD 38071 = Delta 358 booster
1 38071U 12003B   17298.49919926  .00000000  00000-0  00000-0 0    04
2 38071 022.5051 299.8661 8178101 089.7862 199.5846 01.15531814    04

# Worst residual: 11.96 km
# MJD 58052.000000 (2017 Oct 26  0:00)
2012-003B = NORAD 38071 = Delta 358 booster
1 38071U 12003B   17299.49919926  .00000000  00000-0  00000-0 0    05
2 38071 022.5041 299.6824 8178259 090.0932 255.4854 01.15536772    08

# Worst residual: 12.29 km
# MJD 58053.000000 (2017 Oct 27  0:00)
2012-003B = NORAD 38071 = Delta 358 booster
1 38071U 12003B   17300.49919926  .00000000  00000-0  00000-0 0    08
2 38071 022.5022 299.5116 8178203 090.3875 311.3895 01.15542707    00

# Worst residual: 11.08 km
# MJD 58054.000000 (2017 Oct 28  0:00)
2012-003B = NORAD 38071 = Delta 358 booster
1 38071U 12003B   17301.49919926  .00000000  00000-0  00000-0 0    09
2 38071 022.5005 299.3329 8177954 090.6896 007.2863 01.15549192    04

# Worst residual: 11.46 km
# MJD 58055.000000 (2017 Oct 29  0:00)
2012-003B = NORAD 38071 = Delta 358 booster
1 38071U 12003B   17302.49919926  .00000000  00000-0  00000-0 0    00
2 38071 022.4995 299.1528 8177906 090.9895 063.1942 01.15544530    09

# Worst residual: 12.13 km
# MJD 58056.000000 (2017 Oct 30  0:00)
2012-003B = NORAD 38071 = Delta 358 booster
1 38071U 12003B   17303.49919926  .00000000  00000-0  00000-0 0    01
2 38071 022.4984 298.9804 8178141 091.2871 119.0903 01.15536611    00

# Worst residual: 10.90 km
# MJD 58057.000000 (2017 Oct 31  0:00)
2012-003B = NORAD 38071 = Delta 358 booster
1 38071U 12003B   17304.49919926  .00000000  00000-0  00000-0 0    02
2 38071 022.4975 298.8122 8177808 091.5851 174.9758 01.15535239    05

# Worst residual: 11.04 km
# MJD 58058.000000 (2017 Nov  1  0:00)
2012-003B = NORAD 38071 = Delta 358 booster
1 38071U 12003B   17305.49919926  .00000000  00000-0  00000-0 0    03
2 38071 022.4967 298.6197 8177658 091.9024 230.8671 01.15535254    08

# Worst residual: 12.31 km
# MJD 58059.000000 (2017 Nov  2  0:00)
2012-003B = NORAD 38071 = Delta 358 booster
1 38071U 12003B   17306.49919926  .00000000  00000-0  00000-0 0    04
2 38071 022.4955 298.4556 8177404 092.1959 286.7549 01.15536443    06

# Worst residual: 11.80 km
# MJD 58060.000000 (2017 Nov  3  0:00)
2012-003B = NORAD 38071 = Delta 358 booster
1 38071U 12003B   17307.49919926  .00000000  00000-0  00000-0 0    05
2 38071 022.4936 298.2860 8176949 092.4906 342.6543 01.15544219    05

# Worst residual: 11.04 km
# MJD 58061.000000 (2017 Nov  4  0:00)
2012-003B = NORAD 38071 = Delta 358 booster
1 38071U 12003B   17308.49919926  .00000000  00000-0  00000-0 0    06
2 38071 022.4924 298.1091 8176805 092.7902 038.5570 01.15547512    07

# Worst residual: 11.93 km
# MJD 58062.000000 (2017 Nov  5  0:00)
2012-003B = NORAD 38071 = Delta 358 booster
1 38071U 12003B   17309.49919926  .00000000  00000-0  00000-0 0    07
2 38071 022.4912 297.9364 8176648 093.0889 094.4459 01.15539765    05

# Worst residual: 11.59 km
# MJD 58063.000000 (2017 Nov  6  0:00)
2012-003B = NORAD 38071 = Delta 358 booster
1 38071U 12003B   17310.49919926  .00000000  00000-0  00000-0 0    09
2 38071 022.4900 297.7683 8176422 093.3845 150.3374 01.15533864    01

# Worst residual: 12.48 km
# MJD 58064.000000 (2017 Nov  7  0:00)
2012-003B = NORAD 38071 = Delta 358 booster
1 38071U 12003B   17311.49919926  .00000000  00000-0  00000-0 0    00
2 38071 022.4888 297.5814 8175726 093.6987 206.2206 01.15529040    02

# Worst residual: 12.90 km
# MJD 58065.000000 (2017 Nov  8  0:00)
2012-003B = NORAD 38071 = Delta 358 booster
1 38071U 12003B   17312.49919926  .00000000  00000-0  00000-0 0    01
2 38071 022.4880 297.4033 8175749 094.0033 262.1101 01.15534497    05
